API VERSION: 1.2
API SOURCE: NASA/JPL Horizons API



*******************************************************************************
Ephemeris / API_USER Sat Jul 11 19:37:02 2026 Pasadena, USA      / Horizons    
*******************************************************************************
Target body name: 2060 Chiron (1977 UB)           {source: JPL#171}
Center body name: Earth (399)                     {source: DE441}
Center-site name: GEOCENTRIC
*******************************************************************************
Start time      : A.D. 2040-Jan-01 00:00:00.0000 UT      
Stop  time      : A.D. 2045-Jan-01 00:00:00.0000 UT      
Step-size       : 2880 minutes
*******************************************************************************
Target pole/equ : undefined
Target radii    : 83. km                                                       
Center geodetic : 0.0, 0.0, -6378.137             {E-lon(deg),Lat(deg),Alt(km)}
Center cylindric: 0.0, 0.0, 0.0                   {E-lon(deg),Dxy(km),Dz(km)}
Center pole/equ : ITRF93                          {East-longitude positive}
Center radii    : 6378.137, 6378.137, 6356.752 km {Equator_a, b, pole_c}       
Target primary  : Sun
Vis. interferer : MOON (R_eq= 1737.400) km        {source: DE441}
Rel. light bend : Sun                             {source: DE441}
Rel. lght bnd GM: 1.3271E+11 km^3/s^2                                          
Small-body perts: Yes                             {source: SB441-N16}
Atmos refraction: NO (AIRLESS)
RA format       : DEG
Time format     : CAL 
Calendar mode   : Mixed Julian/Gregorian
EOP file        : eop.260710.p261006                                           
EOP coverage    : DATA-BASED 1962-JAN-20 TO 2026-JUL-10. PREDICTS-> 2026-OCT-05
Units conversion: 1 au= 149597870.700 km, c= 299792.458 km/s, 1 day= 86400.0 s 
Table cut-offs 1: Elevation (-90.0deg=NO ),Airmass (>38.000=NO), Daylight (NO )
Table cut-offs 2: Solar elongation (  0.0,180.0=NO ),Local Hour Angle( 0.0=NO )
Table cut-offs 3: RA/DEC angular rate (     0.0=NO )                           
*******************************************************************************
Initial IAU76/J2000 heliocentric ecliptic osculating elements (au, days, deg.):
  EPOCH=  2457916.5 ! 2017-Jun-12.00 (TDB)         Residual RMS= .19933        
   EC= .3824171374703196   QR= 8.427522999110739   TP= 2450143.7110841358      
   OM= 209.2011323125998   W=  339.6529896907077   IN= 6.94959060447848        
  Equivalent ICRF heliocentric cartesian coordinates (au, au/d):
   X= 1.843374627977423E+01  Y=-1.877818593473934E+00  Z= 5.548833989583914E-01
  VX= 7.316266023833624E-04 VY= 2.960187278972600E-03 VZ= 9.710586201315230E-04
Asteroid physical parameters (km, seconds, rotational period in hours):        
   GM= n.a.                RAD= 83.                ROTPER= 5.918               
   H= 5.54                 G= .150                 B-V= .704                   
                           ALBEDO= .150            STYP= Cb                    
*******************************************************************************
 Date__(UT)__HR:MN        ObsEcLon    ObsEcLat
**********************************************
$$SOE
 2043-Dec-11 00:00     152.5043476  -6.4321957
 2043-Dec-13 00:00     152.5203366  -6.4510577
 2043-Dec-15 00:00     152.5289346  -6.4697852
 2043-Dec-17 00:00     152.5301444  -6.4883482
 2043-Dec-19 00:00     152.5238889  -6.5067150
 2043-Dec-21 00:00     152.5101168  -6.5248507
 2043-Dec-23 00:00     152.4888662  -6.5427182
 2043-Dec-25 00:00     152.4602229  -6.5602780
 2043-Dec-27 00:00     152.4242767  -6.5774901
 2043-Dec-29 00:00     152.3811105  -6.5943140
 2043-Dec-31 00:00     152.3308015  -6.6107092
 2044-Jan-02 00:00     152.2734312  -6.6266357
 2044-Jan-04 00:00     152.2091033  -6.6420540
 2044-Jan-06 00:00     152.1379646  -6.6569262
 2044-Jan-08 00:00     152.0602157  -6.6712158
 2044-Jan-10 00:00     151.9761002  -6.6848877
 2044-Jan-12 00:00     151.8858587  -6.6979088
 2044-Jan-14 00:00     151.7896675  -6.7102465
 2044-Jan-16 00:00     151.6876477  -6.7218678
 2044-Jan-18 00:00     151.5799657  -6.7327384
 2044-Jan-20 00:00     151.4668787  -6.7428228
 2044-Jan-22 00:00     151.3486810  -6.7520857
 2044-Jan-24 00:00     151.2256620  -6.7604931
 2044-Jan-26 00:00     151.0981009  -6.7680126
 2044-Jan-28 00:00     150.9662738  -6.7746143
 2044-Jan-30 00:00     150.8304637  -6.7802707
 2044-Feb-01 00:00     150.6909783  -6.7849576
 2044-Feb-03 00:00     150.5481716  -6.7886539
 2044-Feb-05 00:00     150.4024456  -6.7913426
 2044-Feb-07 00:00     150.2542197  -6.7930101
 2044-Feb-09 00:00     150.1038767  -6.7936458
 2044-Feb-11 00:00     149.9517293  -6.7932412
 2044-Feb-13 00:00     149.7980568  -6.7917888
 2044-Feb-15 00:00     149.6431879  -6.7892813
 2044-Feb-17 00:00     149.4875198  -6.7857121
 2044-Feb-19 00:00     149.3314636  -6.7810763
 2044-Feb-21 00:00     149.1754062  -6.7753720
 2044-Feb-23 00:00     149.0197109  -6.7686003
 2044-Feb-25 00:00     148.8647288  -6.7607659
 2044-Feb-27 00:00     148.7108092  -6.7518768
 2044-Feb-29 00:00     148.5583171  -6.7419450
 2044-Mar-02 00:00     148.4076532  -6.7309865
 2044-Mar-04 00:00     148.2592482  -6.7190212
 2044-Mar-06 00:00     148.1135112  -6.7060722
 2044-Mar-08 00:00     147.9707761  -6.6921650
 2044-Mar-10 00:00     147.8313048  -6.6773258
 2044-Mar-12 00:00     147.6953462  -6.6615810
 2044-Mar-14 00:00     147.5631932  -6.6449565
 2044-Mar-16 00:00     147.4351765  -6.6274784
 2044-Mar-18 00:00     147.3116146  -6.6091738
 2044-Mar-20 00:00     147.1927852  -6.5900714
 2044-Mar-22 00:00     147.0789322  -6.5702017
 2044-Mar-24 00:00     146.9702803  -6.5495974
 2044-Mar-26 00:00     146.8670481  -6.5282930
 2044-Mar-28 00:00     146.7694643  -6.5063249
 2044-Mar-30 00:00     146.6777864  -6.4837319
 2044-Apr-01 00:00     146.5922866  -6.4605542
 2044-Apr-03 00:00     146.5131840  -6.4368334
 2044-Apr-05 00:00     146.4406002  -6.4126103
 2044-Apr-07 00:00     146.3746018  -6.3879242
 2044-Apr-09 00:00     146.3152721  -6.3628123
 2044-Apr-11 00:00     146.2627366  -6.3373097
 2044-Apr-13 00:00     146.2171364  -6.3114504
 2044-Apr-15 00:00     146.1785875  -6.2852674
 2044-Apr-17 00:00     146.1471642  -6.2587941
 2044-Apr-19 00:00     146.1229103  -6.2320638
 2044-Apr-21 00:00     146.1058565  -6.2051100
 2044-Apr-23 00:00     146.0960353  -6.1779666
 2044-Apr-25 00:00     146.0934958  -6.1506678
 2044-Apr-27 00:00     146.0983173  -6.1232483
 2044-Apr-29 00:00     146.1105860  -6.0957429
 2044-May-01 00:00     146.1303185  -6.0681859
 2044-May-03 00:00     146.1574310  -6.0406095
 2044-May-05 00:00     146.1918181  -6.0130431
 2044-May-07 00:00     146.2334227  -5.9855130
 2044-May-09 00:00     146.2822297  -5.9580431
 2044-May-11 00:00     146.3382251  -5.9306560
 2044-May-13 00:00     146.4013668  -5.9033731
 2044-May-15 00:00     146.4715795  -5.8762156
 2044-May-17 00:00     146.5487683  -5.8492042
 2044-May-19 00:00     146.6328372  -5.8223595
 2044-May-21 00:00     146.7237039  -5.7957021
 2044-May-23 00:00     146.8213124  -5.7692525
 2044-May-25 00:00     146.9256370  -5.7430314
 2044-May-27 00:00     147.0366512  -5.7170593
 2044-May-29 00:00     147.1542494  -5.6913560
 2044-May-31 00:00     147.2782357  -5.6659390
 2044-Jun-02 00:00     147.4084263  -5.6408229
 2044-Jun-04 00:00     147.5447088  -5.6160198
 2044-Jun-06 00:00     147.6870045  -5.5915402
 2044-Jun-08 00:00     147.8352239  -5.5673935
 2044-Jun-10 00:00     147.9892491  -5.5435889
 2044-Jun-12 00:00     148.1489380  -5.5201353
 2044-Jun-14 00:00     148.3141393  -5.4970416
 2044-Jun-16 00:00     148.4847110  -5.4743170
 2044-Jun-18 00:00     148.6605345  -5.4519709
 2044-Jun-20 00:00     148.8415226  -5.4300127
 2044-Jun-22 00:00     149.0276124  -5.4084524
 2044-Jun-24 00:00     149.2187263  -5.3872998
 2044-Jun-26 00:00     149.4147042  -5.3665640
 2044-Jun-28 00:00     149.6153133  -5.3462523
 2044-Jun-30 00:00     149.8203598  -5.3263698
 2044-Jul-02 00:00     150.0297294  -5.3069193
 2044-Jul-04 00:00     150.2433277  -5.2879030
 2044-Jul-06 00:00     150.4610373  -5.2693226
 2044-Jul-08 00:00     150.6827138  -5.2511803
 2044-Jul-10 00:00     150.9081955  -5.2334780
 2044-Jul-12 00:00     151.1373203  -5.2162185
 2044-Jul-14 00:00     151.3699424  -5.1994046
 2044-Jul-16 00:00     151.6059461  -5.1830400
 2044-Jul-18 00:00     151.8452467  -5.1671285
 2044-Jul-20 00:00     152.0877713  -5.1516746
 2044-Jul-22 00:00     152.3334145  -5.1366826
 2044-Jul-24 00:00     152.5819915  -5.1221563
 2044-Jul-26 00:00     152.8332699  -5.1080979
 2044-Jul-28 00:00     153.0870733  -5.0945077
 2044-Jul-30 00:00     153.3432998  -5.0813845
 2044-Aug-01 00:00     153.6018505  -5.0687269
 2044-Aug-03 00:00     153.8625947  -5.0565334
 2044-Aug-05 00:00     154.1253764  -5.0448030
 2044-Aug-07 00:00     154.3900298  -5.0335351
 2044-Aug-09 00:00     154.6563945  -5.0227299
 2044-Aug-11 00:00     154.9243324  -5.0123879
 2044-Aug-13 00:00     155.1937394  -5.0025105
 2044-Aug-15 00:00     155.4645375  -4.9930994
 2044-Aug-17 00:00     155.7366430  -4.9841570
 2044-Aug-19 00:00     156.0099222  -4.9756855
 2044-Aug-21 00:00     156.2841725  -4.9676863
 2044-Aug-23 00:00     156.5591741  -4.9601597
 2044-Aug-25 00:00     156.8347703  -4.9531044
 2044-Aug-27 00:00     157.1108627  -4.9465177
 2044-Aug-29 00:00     157.3873399  -4.9403951
 2044-Aug-31 00:00     157.6640557  -4.9347306
 2044-Sep-02 00:00     157.9408458  -4.9295215
 2044-Sep-04 00:00     158.2175409  -4.9247691
 2044-Sep-06 00:00     158.4939797  -4.9204747
 2044-Sep-08 00:00     158.7700271  -4.9166383
 2044-Sep-10 00:00     159.0455846  -4.9132597
 2044-Sep-12 00:00     159.3205723  -4.9103395
 2044-Sep-14 00:00     159.5948836  -4.9078784
 2044-Sep-16 00:00     159.8683489  -4.9058768
 2044-Sep-18 00:00     160.1407486  -4.9043344
 2044-Sep-20 00:00     160.4118771  -4.9032493
 2044-Sep-22 00:00     160.6815913  -4.9026184
